NORAD_CAT_ID,OBJECT_NAME,OBJECT_TYPE,EPOCH,MEAN_MOTION,ECCENTRICITY,INCLINATION,RA_OF_ASC_NODE,ARG_OF_PERICENTER,MEAN_ANOMALY,BSTAR,MEAN_MOTION_DOT,MEAN_MOTION_DDOT,TLE_LINE0,TLE_LINE1,TLE_LINE2,SEMIMAJOR_AXIS,PERIOD,APOGEE,PERIGEE,DECAYED
50831.0,STARLINK-3299,PAYLOAD,2024-04-19 05:39:14,15.08855852,0.0001071,53.2181,24.2675,77.4004,282.7108,0.0002591,3.84e-05,0.0,0 STARLINK-3299,1 50831U 22001AE  24110.23558420  .00003840  00000-0  25910-3 0  9994,2 50831  53.2181  24.2675 0001071  77.4004 282.7108 15.08855852127595,6917.832,95.437,540.438,538.956,0.0
50831.0,STARLINK-3299,PAYLOAD,2024-04-19 21:33:06,15.08842306,0.0001297,53.2209,21.2989,70.4354,289.6778,0.00039233,5.962e-05,0.0,0 STARLINK-3299,1 50831U 22001AE  24110.89799640  .00005962  00000-0  39233-3 0  9997,2 50831  53.2209  21.2989 0001297  70.4354 289.6778 15.08842306127692,6917.873,95.437,540.636,538.841,0.0
50831.0,STARLINK-3299,PAYLOAD,2024-04-20 00:43:52,15.08860886,0.0001283,53.2198,20.6936,94.2287,265.8852,0.00074781,0.0001164,0.0,0 STARLINK-3299,1 50831U 22001AE  24111.03046976  .00011640  00000-0  74781-3 0  9998,2 50831  53.2198  20.6936 0001283  94.2287 265.8852 15.08860886127713,6917.817,95.436,540.569,538.794,0.0
50831.0,STARLINK-3299,PAYLOAD,2024-04-20 18:13:06,15.08852966,0.0001751,53.2206,17.4275,109.2169,250.9013,0.00025006,3.695e-05,0.0,0 STARLINK-3299,1 50831U 22001AE  24111.75910401  .00003695  00000-0  25006-3 0  9997,2 50831  53.2206  17.4275 0001751 109.2169 250.9013 15.08852966127825,6917.841,95.437,540.917,538.494,0.0
50831.0,STARLINK-3299,PAYLOAD,2024-04-20 21:23:53,15.08823947,0.0001064,53.2178,16.8343,80.1235,279.9877,-0.00053155,-8.734e-05,0.0,0 STARLINK-3299,1 50831U 22001AE  24111.89159113 -.00008734  00000-0 -53155-3 0  9994,2 50831  53.2178  16.8343 0001064  80.1235 279.9877 15.08823947126577,6917.929,95.439,540.531,539.058,0.0
50831.0,STARLINK-3299,PAYLOAD,2024-04-21 03:45:25,15.08839869,0.000116,53.2186,15.6442,110.8421,249.2695,-6.6081e-05,-1.339e-05,0.0,0 STARLINK-3299,1 50831U 22001AE  24112.15654964 -.00001339  00000-0 -66081-4 0  9995,2 50831  53.2186  15.6442 0001160 110.8421 249.2695 15.08839869127881,6917.881,95.438,540.548,538.943,0.0
50831.0,STARLINK-3299,PAYLOAD,2024-04-21 22:50:04,15.08827642,0.0001411,53.219,12.0751,112.7293,247.3848,-0.00015228,-2.71e-05,0.0,0 STARLINK-3299,1 50831U 22001AE  24112.95143815 -.00002710  00000-0 -15228-3 0  9991,2 50831  53.2190  12.0751 0001411 112.7293 247.3848 15.08827642126735,6917.918,95.438,540.759,538.807,0.0
50831.0,STARLINK-3299,PAYLOAD,2024-04-22 03:36:13,15.08827237,0.0001464,53.2189,11.1846,115.6972,244.4171,-0.00017034,-2.997e-05,0.0,0 STARLINK-3299,1 50831U 22001AE  24113.15016061 -.00002997  00000-0 -17034-3 0  9990,2 50831  53.2189  11.1846 0001464 115.6972 244.4171 15.08827237128034,6917.919,95.438,540.797,538.772,0.0
50831.0,STARLINK-3299,PAYLOAD,2024-04-22 22:40:51,15.08855795,0.0002229,53.2194,7.6137,142.0574,218.0575,0.00065146,0.000101,0.0,0 STARLINK-3299,1 50831U 22001AE  24113.94503500  .00010100  00000-0  65146-3 0  9996,2 50831  53.2194   7.6137 0002229 142.0574 218.0575 15.08855795126881,6917.832,95.437,541.239,538.155,0.0
50831.0,STARLINK-3299,PAYLOAD,2024-04-23 01:51:37,15.08861707,0.0001372,53.2181,7.0188,129.6279,230.4834,0.00074784,0.00011641,0.0,0 STARLINK-3299,1 50831U 22001AE  24114.07751359  .00011641  00000-0  74784-3 0  9997,2 50831  53.2181   7.0188 0001372 129.6279 230.4834 15.08861707128178,6917.814,95.436,540.628,538.73,0.0
50831.0,STARLINK-3299,PAYLOAD,2024-04-23 20:56:14,15.08853272,0.0002212,53.218,3.4526,141.1362,218.9789,0.00031376,4.711e-05,0.0,0 STARLINK-3299,1 50831U 22001AE  24114.87239173  .00004711  00000-0  31376-3 0  9990,2 50831  53.2180   3.4526 0002212 141.1362 218.9789 15.08853272128290,6917.84,95.437,541.235,538.175,0.0
50831.0,STARLINK-3299,PAYLOAD,2024-04-23 22:31:37,15.08851535,0.0001898,53.2179,3.1551,146.387,213.7242,0.00025945,3.845e-05,0.0,0 STARLINK-3299,1 50831U 22001AE  24114.93863139  .00003845  00000-0  25945-3 0  9994,2 50831  53.2179   3.1551 0001898 146.3870 213.7242 15.08851535127031,6917.845,95.437,541.023,538.397,0.0
50831.0,STARLINK-3299,PAYLOAD,2024-04-24 01:42:24,15.08847545,0.0001127,53.2174,2.5629,85.1935,274.9185,0.00019542,2.824e-05,0.0,0 STARLINK-3299,1 50831U 22001AE  24115.07111561  .00002824  00000-0  19542-3 0  9997,2 50831  53.2174   2.5629 0001127  85.1935 274.9185 15.08847545128326,6917.857,95.437,540.502,538.943,0.0
50831.0,STARLINK-3299,PAYLOAD,2024-04-24 20:47:02,15.08837382,0.0001331,53.2179,358.992,81.1584,278.9559,-0.00021453,-3.7e-05,0.0,0 STARLINK-3299,1 50831U 22001AE  24115.86599959 -.00003700  00000-0 -21453-3 0  9995,2 50831  53.2179 358.9920 0001331  81.1584 278.9559 15.08837382128446,6917.888,95.438,540.674,538.833,0.0
50831.0,STARLINK-3299,PAYLOAD,2024-04-24 22:22:25,15.08839217,0.0001181,53.2179,358.6934,90.2935,269.8193,-0.00023188,-3.976e-05,0.0,0 STARLINK-3299,1 50831U 22001AE  24115.93224050 -.00003976  00000-0 -23188-3 0  9992,2 50831  53.2179 358.6934 0001181  90.2935 269.8193 15.08839217127184,6917.883,95.438,540.565,538.931,0.0
50831.0,STARLINK-3299,PAYLOAD,2024-04-25 01:33:12,15.08845684,0.0001059,53.218,358.0963,111.7969,248.3135,-0.00017531,-3.077e-05,0.0,0 STARLINK-3299,1 50831U 22001AE  24116.06472365 -.00003077  00000-0 -17531-3 0  9998,2 50831  53.2180 358.0963 0001059 111.7969 248.3135 15.08845684127208,6917.863,95.437,540.461,538.995,0.0
50831.0,STARLINK-3299,PAYLOAD,2024-04-25 20:37:49,15.08842333,0.000106,53.2176,354.5318,89.267,270.8444,0.00011768,1.586e-05,0.0,0 STARLINK-3299,1 50831U 22001AE  24116.85959723  .00001586  00000-0  11768-3 0  9990,2 50831  53.2176 354.5318 0001060  89.2670 270.8444 15.08842333128592,6917.873,95.437,540.472,539.005,0.0
50831.0,STARLINK-3299,PAYLOAD,2024-04-25 22:13:11,15.08859985,0.0001011,53.2181,354.2325,92.2663,267.8445,0.00026561,3.944e-05,0.0,0 STARLINK-3299,1 50831U 22001AE  24116.92582275  .00003944  00000-0  26561-3 0  9999,2 50831  53.2181 354.2325 0001011  92.2663 267.8445 15.08859985127334,6917.819,95.436,540.384,538.985,0.0
50831.0,STARLINK-3299,PAYLOAD,2024-04-26 09:20:52,15.08862485,0.0001013,53.2187,352.1508,107.575,252.5353,0.00028412,4.24e-05,0.0,0 STARLINK-3299,1 50831U 22001AE  24117.38949425  .00004240  00000-0  28412-3 0  9991,2 50831  53.2187 352.1508 0001013 107.5750 252.5353 15.08862485127405,6917.812,95.436,540.377,538.976,0.0
50831.0,STARLINK-3299,PAYLOAD,2024-04-26 18:53:13,15.08827225,0.0001183,53.219,350.368,108.6498,251.4623,-4.1385e-05,-9.46e-06,0.0,0 STARLINK-3299,1 50831U 22001AE  24117.78696599 -.00000946  00000-0 -41385-4 0  9992,2 50831  53.2190 350.3680 0001183 108.6498 251.4623 15.08827225128737,6917.919,95.438,540.603,538.966,0.0
50831.0,STARLINK-3299,PAYLOAD,2024-04-26 22:03:59,15.08829225,0.0001537,53.22,349.7725,85.8981,274.2187,7.1368e-05,8.48e-06,0.0,0 STARLINK-3299,1 50831U 22001AE  24117.91944386  .00000848  00000-0  71368-4 0  9990,2 50831  53.2200 349.7725 0001537  85.8981 274.2187 15.08829225127488,6917.913,95.438,540.842,538.715,0.0
50831.0,STARLINK-3299,PAYLOAD,2024-04-27 01:14:45,15.08842202,0.0001141,53.2184,349.1774,105.2677,254.8441,9.1356e-05,1.166e-05,0.0,0 STARLINK-3299,1 50831U 22001AE  24118.05191441  .00001166  00000-0  91356-4 0  9995,2 50831  53.2184 349.1774 0001141 105.2677 254.8441 15.08842202128777,6917.874,95.437,540.528,538.949,0.0
50831.0,STARLINK-3299,PAYLOAD,2024-04-27 21:54:47,15.08834457,0.0001086,53.2186,345.3134,93.3033,266.8084,-0.00025712,-4.377e-05,0.0,0 STARLINK-3299,1 50831U 22001AE  24118.91305271 -.00004377  00000-0 -25712-3 0  9999,2 50831  53.2186 345.3134 0001086  93.3033 266.8084 15.08834457128902,6917.897,95.438,540.514,539.011,0.0
50831.0,STARLINK-3299,PAYLOAD,2024-04-28 01:05:34,15.08833147,0.000114,53.2186,344.7188,93.253,266.8592,-0.00025221,-4.299e-05,0.0,0 STARLINK-3299,1 50831U 22001AE  24119.04553390 -.00004299  00000-0 -25221-3 0  9999,2 50831  53.2186 344.7188 0001140  93.2530 266.8592 15.08833147127656,6917.901,95.438,540.555,538.978,0.0
50831.0,STARLINK-3299,PAYLOAD,2024-04-28 21:45:34,15.08831747,0.0001227,53.2182,340.8551,92.1561,267.9571,0.0002008,2.909e-05,0.0,0 STARLINK-3299,1 50831U 22001AE  24119.90664528  .00002909  00000-0  20080-3 0  9992,2 50831  53.2182 340.8551 0001227  92.1561 267.9571 15.08831747129050,6917.906,95.438,540.619,538.922,0.0
50831.0,STARLINK-3299,PAYLOAD,2024-04-29 07:17:51,15.08855637,0.0001289,53.2192,339.0699,94.9703,265.1436,0.00015959,2.254e-05,0.0,0 STARLINK-3299,1 50831U 22001AE  24120.30407047  .00002254  00000-0  15959-3 0  9991,2 50831  53.2192 339.0699 0001289  94.9703 265.1436 15.08855637129111,6917.833,95.437,540.589,538.806,0.0
50831.0,STARLINK-3299,PAYLOAD,2024-04-29 21:36:21,15.08827237,0.0001246,53.2177,336.3941,88.2325,271.8809,0.00018881,2.717e-05,0.0,0 STARLINK-3299,1 50831U 22001AE  24120.90025239  .00002717  00000-0  18881-3 0  9997,2 50831  53.2177 336.3941 0001246  88.2325 271.8809 15.08827237129206,6917.919,95.438,540.646,538.922,0.0
50831.0,STARLINK-3299,PAYLOAD,2024-04-30 07:08:40,15.08838296,0.0001359,53.2184,334.6106,86.2902,273.8245,0.00018596,2.673e-05,0.0,0 STARLINK-3299,1 50831U 22001AE  24121.29768693  .00002673  00000-0  18596-3 0  9992,2 50831  53.2184 334.6106 0001359  86.2902 273.8245 15.08838296129261,6917.886,95.438,540.691,538.81,0.0
50831.0,STARLINK-3299,PAYLOAD,2024-04-30 19:51:46,15.0884383,0.0001321,53.2187,332.2286,110.4949,249.6186,-2.4831e-05,-6.83e-06,0.0,0 STARLINK-3299,1 50831U 22001AE  24121.82761823 -.00000683  00000-0 -24831-4 0  9990,2 50831  53.2187 332.2286 0001321 110.4949 249.6186 15.08843830129341,6917.869,95.437,540.648,538.82,0.0
50831.0,STARLINK-3299,PAYLOAD,2024-04-30 21:27:09,15.08840745,0.0001359,53.2193,331.9332,89.0945,271.0203,-3.49e-05,-8.43e-06,0.0,0 STARLINK-3299,1 50831U 22001AE  24121.89386126 -.00000843  00000-0 -34900-4 0  9992,2 50831  53.2193 331.9332 0001359  89.0945 271.0203 15.08840745128085,6917.878,95.438,540.683,538.803,0.0
